[{"norad_id":"56513","company":"STARLINK","tle_line2":"2 56513  43.0073 357.2201 0000952 223.7184 136.3583 15.02531722142590","launch_date":"2023-05-14","type":"LEO","tle_line1":"1 56513U 23065L   25340.42062275 -.00000423  00000+0 -16215-4 0  9997","satellite_name":"STARLINK-5329"},{"norad_id":"56515","company":"STARLINK","tle_line2":"2 56515  43.0038 357.1988 0001273 292.8760  67.1948 15.02520942142596","launch_date":"2023-05-14","type":"LEO","tle_line1":"1 56515U 23065N   25340.41732101 -.00001306  00000+0 -81642-4 0  9997","satellite_name":"STARLINK-5348"},{"norad_id":"56516","company":"STARLINK","tle_line2":"2 56516  43.0029 357.2413 0001316 269.7893  90.2799 15.02520945142593","launch_date":"2023-05-14","type":"LEO","tle_line1":"1 56516U 23065P   25340.42286399  .00000448  00000+0  48252-4 0  9996","satellite_name":"STARLINK-5342"},{"norad_id":"56517","company":"STARLINK","tle_line2":"2 56517  43.0026 356.7725 0001030 259.6057 100.4669 15.02538450142606","launch_date":"2023-05-14","type":"LEO","tle_line1":"1 56517U 23065Q   25340.47489493  .00000164  00000+0  27219-4 0  9997","satellite_name":"STARLINK-5345"},{"norad_id":"56518","company":"STARLINK","tle_line2":"2 56518  43.0016 357.1707 0001213 276.7034  83.3671 15.02553274142590","launch_date":"2023-05-14","type":"LEO","tle_line1":"1 56518U 23065R   25340.41395032  .00001974  00000+0  16108-3 0  9991","satellite_name":"STARLINK-5346"},{"norad_id":"56519","company":"STARLINK","tle_line2":"2 56519  43.0029 357.4558 0001661 265.1778  94.8875 15.02531103142585","launch_date":"2023-05-14","type":"LEO","tle_line1":"1 56519U 23065S   25340.33750502  .00000879  00000+0  80154-4 0  9996","satellite_name":"STARLINK-6313"},{"norad_id":"56520","company":"STARLINK","tle_line2":"2 56520  43.0049 357.5095 0001349 258.4246 101.6445 15.02531918142588","launch_date":"2023-05-14","type":"LEO","tle_line1":"1 56520U 23065T   25340.34416493 -.00000615  00000+0 -30490-4 0  9995","satellite_name":"STARLINK-6344"},{"norad_id":"56521","company":"STARLINK","tle_line2":"2 56521  43.0036 356.5591 0001124 267.5502  92.5212 15.02546684142601","launch_date":"2023-05-14","type":"LEO","tle_line1":"1 56521U 23065U   25340.44714628 -.00002180  00000+0 -14629-3 0  9992","satellite_name":"STARLINK-6333"},{"norad_id":"56522","company":"STARLINK","tle_line2":"2 56522  43.0034 357.4640 0000917 265.7696  94.3042 15.02596401142588","launch_date":"2023-05-14","type":"LEO","tle_line1":"1 56522U 23065V   25340.33861274 -.00009970  00000+0 -72288-3 0  9990","satellite_name":"STARLINK-6327"},{"norad_id":"56523","company":"STARLINK","tle_line2":"2 56523  43.0034 356.5940 0001335 266.0662  94.0028 15.02526589142608","launch_date":"2023-05-14","type":"LEO","tle_line1":"1 56523U 23065W   25340.45159141  .00000309  00000+0  37950-4 0  9990","satellite_name":"STARLINK-6328"},{"norad_id":"56524","company":"STARLINK","tle_line2":"2 56524  43.0101 357.3928 0001675 272.9400  87.1251 15.02530916142589","launch_date":"2023-05-14","type":"LEO","tle_line1":"1 56524U 23065X   25340.32752198  .00000263  00000+0  34563-4 0  9994","satellite_name":"STARLINK-6323"},{"norad_id":"56525","company":"STARLINK","tle_line2":"2 56525  43.0041 357.3034 0000893 254.0989 105.9755 15.02537187142580","launch_date":"2023-05-14","type":"LEO","tle_line1":"1 56525U 23065Y   25340.31752143 -.00000324  00000+0 -89089-5 0  9998","satellite_name":"STARLINK-6329"},{"norad_id":"56526","company":"STARLINK","tle_line2":"2 56526  43.0072 357.3382 0001778 271.8109  88.2530 15.02547962142581","launch_date":"2023-05-14","type":"LEO","tle_line1":"1 56526U 23065Z   25340.32086071  .00003910  00000+0  30425-3 0  9990","satellite_name":"STARLINK-6317"},{"norad_id":"56527","company":"STARLINK","tle_line2":"2 56527  43.0043 356.5507 0000800 268.9462  91.1288 15.02530199142604","launch_date":"2023-05-14","type":"LEO","tle_line1":"1 56527U 23065AA  25340.44604383  .00001459  00000+0  12307-3 0  9991","satellite_name":"STARLINK-6335"},{"norad_id":"56528","company":"STARLINK","tle_line2":"2 56528  43.0038 356.5735 0000985 274.4027  85.6702 15.02547840142605","launch_date":"2023-05-14","type":"LEO","tle_line1":"1 56528U 23065AB  25340.44825649 -.00002793  00000+0 -19168-3 0  9998","satellite_name":"STARLINK-6337"},{"norad_id":"56529","company":"STARLINK","tle_line2":"2 56529  43.0052 345.0578 0001379 261.3765  98.6921 15.02508277142723","launch_date":"2023-05-14","type":"LEO","tle_line1":"1 56529U 23065AC  25340.30460222 -.00000007  00000+0  14548-4 0  9999","satellite_name":"STARLINK-6307"},{"norad_id":"56530","company":"STARLINK","tle_line2":"2 56530  43.0052 333.3957 0000996 258.7321 101.3410 15.02530884142834","launch_date":"2023-05-14","type":"LEO","tle_line1":"1 56530U 23065AD  25340.02671459 -.00000103  00000+0  74609-5 0  9998","satellite_name":"STARLINK-6318"},{"norad_id":"56531","company":"STARLINK","tle_line2":"2 56531  43.0040 345.0306 0001318 272.8824  87.1867 15.02531937142729","launch_date":"2023-05-14","type":"LEO","tle_line1":"1 56531U 23065AE  25340.30125269 -.00000611  00000+0 -30136-4 0  9994","satellite_name":"STARLINK-6280"},{"norad_id":"56532","company":"STARLINK","tle_line2":"2 56532  43.0035 344.7459 0000988 273.3269  86.7460 15.02537206142730","launch_date":"2023-05-14","type":"LEO","tle_line1":"1 56532U 23065AF  25340.37771314  .00000948  00000+0  85215-4 0  9999","satellite_name":"STARLINK-6319"},{"norad_id":"56533","company":"STARLINK","tle_line2":"2 56533  43.0056 344.9832 0001217 268.9533  91.1170 15.02537333142729","launch_date":"2023-05-14","type":"LEO","tle_line1":"1 56533U 23065AG  25340.29458844 -.00000878  00000+0 -49956-4 0  9997","satellite_name":"STARLINK-6310"},{"norad_id":"56534","company":"STARLINK","tle_line2":"2 56534  43.0044 345.0831 0001297 275.5553  84.5142 15.02537585142726","launch_date":"2023-05-14","type":"LEO","tle_line1":"1 56534U 23065AH  25340.30790354  .00000992  00000+0  88530-4 0  9991","satellite_name":"STARLINK-6308"},{"norad_id":"56535","company":"STARLINK","tle_line2":"2 56535  43.0048   9.9262 0001314 268.0754  91.9937 15.02544059142453","launch_date":"2023-05-14","type":"LEO","tle_line1":"1 56535U 23065AJ  25340.49351303  .00000613  00000+0  60428-4 0  9995","satellite_name":"STARLINK-6309"},{"norad_id":"56536","company":"STARLINK","tle_line2":"2 56536  43.0030   9.8777 0000902 241.8996 118.1755 15.02532042142453","launch_date":"2023-05-14","type":"LEO","tle_line1":"1 56536U 23065AK  25340.48685321  .00000726  00000+0  68801-4 0  9993","satellite_name":"STARLINK-6312"},{"norad_id":"56537","company":"STARLINK","tle_line2":"2 56537  43.0025   9.9062 0000737 261.6971  98.3788 15.02570918142454","launch_date":"2023-05-14","type":"LEO","tle_line1":"1 56537U 23065AL  25340.49016852 -.00007177  00000+0 -51632-3 0  9994","satellite_name":"STARLINK-6311"},{"norad_id":"56538","company":"STARLINK","tle_line2":"2 56538  43.0033 346.3947 0000921 257.7842 102.2897 15.02534102142688","launch_date":"2023-05-14","type":"LEO","tle_line1":"1 56538U 23065AM  25340.02534546 -.00000091  00000+0  83668-5 0  9992","satellite_name":"STARLINK-6314"},{"norad_id":"56539","company":"STARLINK","tle_line2":"2 56539  43.0029  11.6325 0001415 277.5555  82.5127 15.02532496142406","launch_date":"2023-05-14","type":"LEO","tle_line1":"1 56539U 23065AN  25340.14779962 -.00000658  00000+0 -33605-4 0  9994","satellite_name":"STARLINK-6135"},{"norad_id":"56540","company":"STARLINK","tle_line2":"2 56540  43.0010  11.6111 0000760 267.1521  92.9234 15.02539006142409","launch_date":"2023-05-14","type":"LEO","tle_line1":"1 56540U 23065AP  25340.14446706 -.00000080  00000+0  91298-5 0  9994","satellite_name":"STARLINK-6136"},{"norad_id":"56541","company":"STARLINK","tle_line2":"2 56541  43.0049  11.6186 0001688 274.9191  85.1459 15.02528898142403","launch_date":"2023-05-14","type":"LEO","tle_line1":"1 56541U 23065AQ  25340.14558568 -.00000512  00000+0 -22794-4 0  9990","satellite_name":"STARLINK-6249"},{"norad_id":"56542","company":"STARLINK","tle_line2":"2 56542  43.0058  10.5781 0001004 262.9691  97.1037 15.02522383142438","launch_date":"2023-05-14","type":"LEO","tle_line1":"1 56542U 23065AR  25340.35057742 -.00000535  00000+0 -24561-4 0  9991","satellite_name":"STARLINK-6266"},{"norad_id":"56544","company":"STARLINK","tle_line2":"2 56544  43.0026   9.8691 0000974 272.9009  87.1722 15.02542535142447","launch_date":"2023-05-14","type":"LEO","tle_line1":"1 56544U 23065AT  25340.36931955 -.00002517  00000+0 -17129-3 0  9994","satellite_name":"STARLINK-6226"}]