OBJECT_NAME,OBJECT_ID,EPOCH,MEAN_MOTION,ECCENTRICITY,INCLINATION,RA_OF_ASC_NODE,ARG_OF_PERICENTER,MEAN_ANOMALY,EPHEMERIS_TYPE,CLASSIFICATION_TYPE,NORAD_CAT_ID,ELEMENT_SET_NO,REV_AT_EPOCH,BSTAR,MEAN_MOTION_DOT,MEAN_MOTION_DDOT
STARLINK-5329,2023-065L,2025-12-06T10:05:41.805600,15.02531722,.00009525,43.0073,357.2201,223.7184,136.3583,0,U,56513,999,14259,-.16215034E-4,-.423E-5,0
STARLINK-5348,2023-065N,2025-12-06T10:00:56.535264,15.02520942,.00012739,43.0038,357.1988,292.8760,67.1948,0,U,56515,999,14259,-.81642036E-4,-.1306E-4,0
STARLINK-5342,2023-065P,2025-12-06T10:08:55.448736,15.02520945,.00013161,43.0029,357.2413,269.7893,90.2799,0,U,56516,999,14259,.48251579E-4,.448E-5,0
STARLINK-5345,2023-065Q,2025-12-06T11:23:50.921952,15.02538450,.00010307,43.0026,356.7725,259.6057,100.4669,0,U,56517,999,14260,.27219094E-4,.164E-5,0
STARLINK-5346,2023-065R,2025-12-06T09:56:05.307648,15.02553274,.00012137,43.0016,357.1707,276.7034,83.3671,0,U,56518,999,14259,.16108203E-3,.1974E-4,0
STARLINK-6313,2023-065S,2025-12-06T08:06:00.433728,15.02531103,.00016616,43.0029,357.4558,265.1778,94.8875,0,U,56519,999,14258,.80154243E-4,.879E-5,0
STARLINK-6344,2023-065T,2025-12-06T08:15:35.849952,15.02531918,.00013496,43.0049,357.5095,258.4246,101.6445,0,U,56520,999,14258,-.30489723E-4,-.615E-5,0
STARLINK-6333,2023-065U,2025-12-06T10:43:53.438592,15.02546684,.00011241,43.0036,356.5591,267.5502,92.5212,0,U,56521,999,14260,-.1462933E-3,-.218E-4,0
STARLINK-6327,2023-065V,2025-12-06T08:07:36.140736,15.02596401,.00009175,43.0034,357.4640,265.7696,94.3042,0,U,56522,999,14258,-.72288286E-3,-.997E-4,0
STARLINK-6328,2023-065W,2025-12-06T10:50:17.497824,15.02526589,.00013359,43.0034,356.5940,266.0662,94.0028,0,U,56523,999,14260,.37949985E-4,.309E-5,0
STARLINK-6323,2023-065X,2025-12-06T07:51:37.899072,15.02530916,.0001675,43.0101,357.3928,272.9400,87.1251,0,U,56524,999,14258,.34562687E-4,.263E-5,0
STARLINK-6329,2023-065Y,2025-12-06T07:37:13.851552,15.02537187,.0000893,43.0041,357.3034,254.0989,105.9755,0,U,56525,999,14258,-.8908859E-5,-.324E-5,0
STARLINK-6317,2023-065Z,2025-12-06T07:42:02.365344,15.02547962,.00017786,43.0072,357.3382,271.8109,88.2530,0,U,56526,999,14258,.30425345E-3,.391E-4,0
STARLINK-6335,2023-065AA,2025-12-06T10:42:18.186912,15.02530199,.00008008,43.0043,356.5507,268.9462,91.1288,0,U,56527,999,14260,.12307323E-3,.1459E-4,0
STARLINK-6337,2023-065AB,2025-12-06T10:45:29.360736,15.02547840,.00009859,43.0038,356.5735,274.4027,85.6702,0,U,56528,999,14260,-.19167951E-3,-.2793E-4,0
STARLINK-6307,2023-065AC,2025-12-06T07:18:37.631808,15.02508277,.00013799,43.0052,345.0578,261.3765,98.6921,0,U,56529,999,14272,.14548494E-4,-.7E-7,0
STARLINK-6318,2023-065AD,2025-12-06T00:38:28.140576,15.02530884,.00009969,43.0052,333.3957,258.7321,101.3410,0,U,56530,999,14283,.7460898E-5,-.103E-5,0
STARLINK-6280,2023-065AE,2025-12-06T07:13:48.232416,15.02531937,.00013181,43.0040,345.0306,272.8824,87.1867,0,U,56531,999,14272,-.30135689E-4,-.611E-5,0
STARLINK-6319,2023-065AF,2025-12-06T09:03:54.415296,15.02537206,.00009881,43.0035,344.7459,273.3269,86.7460,0,U,56532,999,14273,.85214577E-4,.948E-5,0
STARLINK-6310,2023-065AG,2025-12-06T07:04:12.441216,15.02537333,.00012179,43.0056,344.9832,268.9533,91.1170,0,U,56533,999,14272,-.49956231E-4,-.878E-5,0
STARLINK-6308,2023-065AH,2025-12-06T07:23:22.865856,15.02537585,.00012972,43.0044,345.0831,275.5553,84.5142,0,U,56534,999,14272,.8852963E-4,.992E-5,0
STARLINK-6309,2023-065AJ,2025-12-06T11:50:39.525792,15.02544059,.00013145,43.0048,9.9262,268.0754,91.9937,0,U,56535,999,14245,.6042793E-4,.613E-5,0
STARLINK-6312,2023-065AK,2025-12-06T11:41:04.117344,15.02532042,.00009026,43.0030,9.8777,241.8996,118.1755,0,U,56536,999,14245,.68800565E-4,.726E-5,0
STARLINK-6311,2023-065AL,2025-12-06T11:45:50.560128,15.02570918,.00007374,43.0025,9.9062,261.6971,98.3788,0,U,56537,999,14245,-.51631627E-3,-.7177E-4,0
STARLINK-6314,2023-065AM,2025-12-06T00:36:29.847744,15.02534102,.00009217,43.0033,346.3947,257.7842,102.2897,0,U,56538,999,14268,.8366795E-5,-.91E-6,0
STARLINK-6135,2023-065AN,2025-12-06T03:32:49.887168,15.02532496,.0001415,43.0029,11.6325,277.5555,82.5127,0,U,56539,999,14240,-.33604669E-4,-.658E-5,0
STARLINK-6136,2023-065AP,2025-12-06T03:28:01.953984,15.02539006,.00007606,43.0010,11.6111,267.1521,92.9234,0,U,56540,999,14240,.9129841E-5,-.8E-6,0
STARLINK-6249,2023-065AQ,2025-12-06T03:29:38.602752,15.02528898,.00016885,43.0049,11.6186,274.9191,85.1459,0,U,56541,999,14240,-.22794149E-4,-.512E-5,0
STARLINK-6266,2023-065AR,2025-12-06T08:24:49.889088,15.02522383,.00010048,43.0058,10.5781,262.9691,97.1037,0,U,56542,999,14243,-.24560857E-4,-.535E-5,0
STARLINK-6226,2023-065AT,2025-12-06T08:51:49.209120,15.02542535,.00009746,43.0026,9.8691,272.9009,87.1722,0,U,56544,999,14244,-.17128526E-3,-.2517E-4,0
